GLOBAL-18               
1 52196U 22034B   26155.71374015  .00024436  00000+0  50474-3 0  9992
2 52196  52.9833 316.2293 0003640 212.0941 147.9843 15.45721175235030
GAOFEN-3 03             
1 52200U 22035A   26156.22726729 -.00000149  00000+0 -32018-4 0  9991
2 52200  98.4060 164.9812 0001034  95.1915 264.9393 14.42212928219123
COSMOS 2554             
1 52202U 22036A   26156.02595275 -.00000024  00000+0  36832-4 0  9991
2 52202  67.1486 258.2543 0005626 258.9162 101.1290 13.96679133212250
ZHONGXING-6D            
1 52255U 22038A   26155.94869720 -.00000341  00000+0  00000+0 0  9995
2 52255   0.0300  94.4122 0000345 253.3105  12.2815  1.00271055 15294
DAQI-1                  
1 52257U 22039A   26156.20146330  .00000460  00000+0  11074-3 0  9991
2 52257  98.1488  95.3022 0002626 312.0190  48.0786 14.57670642220193
STARLINK-3761           
1 52262U 22041B   26156.08257825  .00000933  00000+0  76699-4 0  9998
2 52262  53.1775  76.7268 0001231 105.7919 254.3208 15.08828371227550
STARLINK-3786           
1 52263U 22041C   26156.02002863  .00000546  00000+0  52437-4 0  9997
2 52263  53.1776  77.0598 0001670  56.8514 303.2638 15.08829908227543
STARLINK-3795           
1 52264U 22041D   26156.07890297  .00000217  00000+0  31714-4 0  9999
2 52264  53.1782  76.7865 0001266  85.1286 274.9850 15.08831097227559
STARLINK-3740           
1 52265U 22041E   26156.00896366 -.00000050  00000+0  15121-4 0  9996
2 52265  53.1825  77.1412 0006477 167.7018 192.4133 15.08839921227541
STARLINK-3739           
1 52266U 22041F   26156.07052657  .00011425  00000+0  72898-3 0  9991
2 52266  53.2148  76.8398 0001432  87.1870 272.9286 15.09129707227556
STARLINK-3748           
1 52267U 22041G   26155.66671296  .00049422  00000+0  31039-2 0  9991
2 52267  53.1752  78.6466 0001361  92.5823 247.3825 15.08813262  5646
STARLINK-3746           
1 52268U 22041H   26156.04944716  .00000915  00000+0  75574-4 0  9993
2 52268  53.1797  76.8396 0001377  91.7381 268.3769 15.08843186227559
STARLINK-3791           
1 52269U 22041J   26156.06414904  .00002059  00000+0  14728-3 0  9991
2 52269  53.1820  76.8598 0001892 118.7827 241.3355 15.08869995227556
STARLINK-3804           
1 52270U 22041K   26155.99058022  .00000521  00000+0  50831-4 0  9997
2 52270  53.1771  77.2126 0001402  91.7363 268.3790 15.08833145227546
STARLINK-3788           
1 52271U 22041L   26156.06051020 -.00000499  00000+0 -13247-4 0  9994
2 52271  53.1884  76.8733 0001633  83.9695 276.1483 15.08828626227553
STARLINK-3781           
1 52272U 22041M   26156.05410206 -.00000711  00000+0 -26582-4 0  9992
2 52272  53.1764  76.9361 0001111  95.1032 265.0086 15.08839696227555
STARLINK-3782           
1 52273U 22041N   26155.03199527  .00003933  00000+0  26488-3 0  9991
2 52273  53.1881  71.8771 0002978 155.4743 204.6391 15.08864712227539
STARLINK-3790           
1 52274U 22041P   26156.04578061 -.00002123  00000+0 -11531-3 0  9993
2 52274  53.1776  76.9363 0001541 124.4483 235.6654 15.08844387227552
STARLINK-3784           
1 52275U 22041Q   26156.05315066 -.00001773  00000+0 -93355-4 0  9994
2 52275  53.1882  76.9043 0001785  90.2228 269.8968 15.08822933227553
STARLINK-3778           
1 52276U 22041R   26156.04210078 -.00000226  00000+0  38746-5 0  9996
2 52276  53.1795  76.9540 0001376  82.1058 278.0090 15.08839357227552
STARLINK-3780           
1 52278U 22041T   26156.03841881  .00001520  00000+0  11361-3 0  9998
2 52278  53.1759  76.9791 0001209  96.0703 264.0426 15.08835242227555
STARLINK-3764           
1 52280U 22041V   26155.10005498 -.00008157  00000+0 -49548-3 0  9997
2 52280  53.1841  81.1838 0002333 102.8148 257.3105 15.08799538227419
STARLINK-3779           
1 52281U 22041W   26156.04305422  .00001330  00000+0  10164-3 0  9998
2 52281  53.1793  76.9481 0001348  83.3152 276.7993 15.08844177227550
STARLINK-3783           
1 52282U 22041X   26155.02734227  .00000181  00000+0  29485-4 0  9995
2 52282  53.1823  71.5113 0001710  67.1523 292.9650 15.08839937227539
STARLINK-3789           
1 52283U 22041Y   26155.96849819  .00001237  00000+0  95828-4 0  9990
2 52283  53.1789  77.2795 0001303  57.2401 302.8717 15.08836387227545
STARLINK-3561           
1 52284U 22041Z   26155.08630211  .00001113  00000+0  88265-4 0  9998
2 52284  53.1850  71.2363 0002480 153.8283 206.2834 15.08728240227543
STARLINK-3802           
1 52286U 22041AB  26156.00594005  .00040723  00000+0  25391-2 0  9992
2 52286  53.1834  67.1072 0003663 155.6612 204.4554 15.09165983227682
STARLINK-3822           
1 52287U 22041AC  26156.02370281 -.00006629  00000+0 -39849-3 0  9996
2 52287  53.1787  77.0357 0001004  95.2602 264.8504 15.08865195227553
STARLINK-3776           
1 52288U 22041AD  26156.06877800  .00000698  00000+0  61948-4 0  9994
2 52288  53.1766  66.8334 0001177 109.8182 250.2937 15.08834054227692
STARLINK-3751           
1 52289U 22041AE  26155.08989122 -.00002109  00000+0 -11439-3 0  9997
2 52289  53.1828  71.2245 0000985 114.5562 245.5532 15.08853647227545
