OBJECT_NAME,OBJECT_ID,EPOCH,MEAN_MOTION,ECCENTRICITY,INCLINATION,RA_OF_ASC_NODE,ARG_OF_PERICENTER,MEAN_ANOMALY,EPHEMERIS_TYPE,CLASSIFICATION_TYPE,NORAD_CAT_ID,ELEMENT_SET_NO,REV_AT_EPOCH,BSTAR,MEAN_MOTION_DOT,MEAN_MOTION_DDOT
GLOBAL-18,2022-034B,2026-06-04T17:07:47.148960,15.45721175,.000364,52.9833,316.2293,212.0941,147.9843,0,U,52196,999,23503,.50474E-3,.24436E-3,0
GAOFEN-3 03,2022-035A,2026-06-05T05:27:15.893856,14.42212928,.0001034,98.4060,164.9812,95.1915,264.9393,0,U,52200,999,21912,-.32018E-4,-.149E-5,0
COSMOS 2554,2022-036A,2026-06-05T00:37:22.317600,13.96679133,.0005626,67.1486,258.2543,258.9162,101.1290,0,U,52202,999,21225,.36832E-4,-.24E-6,0
ZHONGXING-6D,2022-038A,2026-06-04T22:46:07.438080,1.00271055,.0000345,0.0300,94.4122,253.3105,12.2815,0,U,52255,999,1529,0,-.341E-5,0
DAQI-1,2022-039A,2026-06-05T04:50:06.429120,14.57670642,.0002626,98.1488,95.3022,312.0190,48.0786,0,U,52257,999,22019,.11074E-3,.46E-5,0
STARLINK-3761,2022-041B,2026-06-05T01:58:54.760800,15.08828371,.0001231,53.1775,76.7268,105.7919,254.3208,0,U,52262,999,22755,.76699E-4,.933E-5,0
STARLINK-3786,2022-041C,2026-06-05T00:28:50.473632,15.08829908,.000167,53.1776,77.0598,56.8514,303.2638,0,U,52263,999,22754,.52437E-4,.546E-5,0
STARLINK-3795,2022-041D,2026-06-05T01:53:37.216608,15.08831097,.0001266,53.1782,76.7865,85.1286,274.9850,0,U,52264,999,22755,.31714E-4,.217E-5,0
STARLINK-3740,2022-041E,2026-06-05T00:12:54.460224,15.08839921,.0006477,53.1825,77.1412,167.7018,192.4133,0,U,52265,999,22754,.15121E-4,-.5E-6,0
STARLINK-3739,2022-041F,2026-06-05T01:41:33.495648,15.09129707,.0001432,53.2148,76.8398,87.1870,272.9286,0,U,52266,999,22755,.72898E-3,.11425E-3,0
STARLINK-3748,2022-041G,2026-06-04T16:00:03.999744,15.08813262,.00013616,53.1752,78.6466,92.5823,247.3825,0,U,52267,999,564,.31038933E-2,.49422E-3,0
STARLINK-3746,2022-041H,2026-06-05T01:11:12.234624,15.08843186,.0001377,53.1797,76.8396,91.7381,268.3769,0,U,52268,999,22755,.75574E-4,.915E-5,0
STARLINK-3791,2022-041J,2026-06-05T01:32:22.477056,15.08869995,.0001892,53.1820,76.8598,118.7827,241.3355,0,U,52269,999,22755,.14728E-3,.2059E-4,0
STARLINK-3804,2022-041K,2026-06-04T23:46:26.131008,15.08833145,.0001402,53.1771,77.2126,91.7363,268.3790,0,U,52270,999,22754,.50831E-4,.521E-5,0
STARLINK-3788,2022-041L,2026-06-05T01:27:08.081280,15.08828626,.0001633,53.1884,76.8733,83.9695,276.1483,0,U,52271,999,22755,-.13247E-4,-.499E-5,0
STARLINK-3781,2022-041M,2026-06-05T01:17:54.417984,15.08839696,.0001111,53.1764,76.9361,95.1032,265.0086,0,U,52272,999,22755,-.26582E-4,-.711E-5,0
STARLINK-3782,2022-041N,2026-06-04T00:46:04.391328,15.08864712,.00029789,53.1881,71.8771,155.4743,204.6391,0,U,52273,999,22753,.26488373E-3,.3933E-4,0
STARLINK-3790,2022-041P,2026-06-05T01:05:55.444704,15.08844387,.0001541,53.1776,76.9363,124.4483,235.6654,0,U,52274,999,22755,-.11531E-3,-.2123E-4,0
STARLINK-3784,2022-041Q,2026-06-05T01:16:32.217024,15.08822933,.0001785,53.1882,76.9043,90.2228,269.8968,0,U,52275,999,22755,-.93355E-4,-.1773E-4,0
STARLINK-3778,2022-041R,2026-06-05T01:00:37.507392,15.08839357,.0001376,53.1795,76.9540,82.1058,278.0090,0,U,52276,999,22755,.38746E-5,-.226E-5,0
STARLINK-3780,2022-041T,2026-06-05T00:55:19.385184,15.08835242,.0001209,53.1759,76.9791,96.0703,264.0426,0,U,52278,999,22755,.11361E-3,.152E-4,0
STARLINK-3764,2022-041V,2026-06-04T02:24:04.750272,15.08799538,.00023333,53.1841,81.1838,102.8148,257.3105,0,U,52280,999,22741,-.49548326E-3,-.8157E-4,0
STARLINK-3779,2022-041W,2026-06-05T01:01:59.884608,15.08844177,.0001348,53.1793,76.9481,83.3152,276.7993,0,U,52281,999,22755,.10164E-3,.133E-4,0
STARLINK-3783,2022-041X,2026-06-04T00:39:22.372128,15.08839937,.00017105,53.1823,71.5113,67.1523,292.9650,0,U,52282,999,22753,.29485308E-4,.181E-5,0
STARLINK-3789,2022-041Y,2026-06-04T23:14:38.243616,15.08836387,.0001303,53.1789,77.2795,57.2401,302.8717,0,U,52283,999,22754,.95828E-4,.1237E-4,0
STARLINK-3561,2022-041Z,2026-06-04T02:04:16.502304,15.08728240,.000248,53.1850,71.2363,153.8283,206.2834,0,U,52284,999,22754,.88265E-4,.1113E-4,0
STARLINK-3802,2022-041AB,2026-06-05T00:08:33.220320,15.09165983,.0003663,53.1834,67.1072,155.6612,204.4554,0,U,52286,999,22768,.25391E-2,.40723E-3,0
STARLINK-3822,2022-041AC,2026-06-05T00:34:07.922784,15.08865195,.0001004,53.1787,77.0357,95.2602,264.8504,0,U,52287,999,22755,-.39849E-3,-.6629E-4,0
STARLINK-3776,2022-041AD,2026-06-05T01:39:02.419200,15.08834054,.0001177,53.1766,66.8334,109.8182,250.2937,0,U,52288,999,22769,.61948E-4,.698E-5,0
STARLINK-3751,2022-041AE,2026-06-04T02:09:26.601408,15.08853647,.0000985,53.1828,71.2245,114.5562,245.5532,0,U,52289,999,22754,-.11439E-3,-.2109E-4,0
